<?xml version="1.0" encoding="UTF-8"?>
<ndm xmlns:xsi="http://www.w3.org/2001/XMLSchema-instance" xsi:noNamespaceSchemaLocation="https://sanaregistry.org/r/ndmxml_unqualified/ndmxml-2.0.0-master-2.0.xsd">
<omm id="CCSDS_OMM_VERS" version="2.0">
<header><CREATION_DATE/><ORIGINATOR/></header><body><segment><metadata><OBJECT_NAME>ONEWEB-0609</OBJECT_NAME><OBJECT_ID>2023-043AA</OBJECT_ID><CENTER_NAME>EARTH</CENTER_NAME><REF_FRAME>TEME</REF_FRAME><TIME_SYSTEM>UTC</TIME_SYSTEM><MEAN_ELEMENT_THEORY>SGP4</MEAN_ELEMENT_THEORY></metadata><data><meanElements><EPOCH>2025-09-01T22:14:08.183904</EPOCH><MEAN_MOTION>13.15548054</MEAN_MOTION><ECCENTRICITY>.00018357</ECCENTRICITY><INCLINATION>87.9059</INCLINATION><RA_OF_ASC_NODE>316.7296</RA_OF_ASC_NODE><ARG_OF_PERICENTER>99.3734</ARG_OF_PERICENTER><MEAN_ANOMALY>260.7604</MEAN_ANOMALY></meanElements><tleParameters><EPHEMERIS_TYPE>0</EPHEMERIS_TYPE><CLASSIFICATION_TYPE>U</CLASSIFICATION_TYPE><NORAD_CAT_ID>56070</NORAD_CAT_ID><ELEMENT_SET_NO>999</ELEMENT_SET_NO><REV_AT_EPOCH>11853</REV_AT_EPOCH><BSTAR>-.29009634E-3</BSTAR><MEAN_MOTION_DOT>-.96E-6</MEAN_MOTION_DOT><MEAN_MOTION_DDOT>0</MEAN_MOTION_DDOT></tleParameters></data></segment></body></omm>
<omm id="CCSDS_OMM_VERS" version="2.0">
<header><CREATION_DATE/><ORIGINATOR/></header><body><segment><metadata><OBJECT_NAME>ONEWEB-0613</OBJECT_NAME><OBJECT_ID>2023-043AB</OBJECT_ID><CENTER_NAME>EARTH</CENTER_NAME><REF_FRAME>TEME</REF_FRAME><TIME_SYSTEM>UTC</TIME_SYSTEM><MEAN_ELEMENT_THEORY>SGP4</MEAN_ELEMENT_THEORY></metadata><data><meanElements><EPOCH>2025-09-01T22:07:17.332032</EPOCH><MEAN_MOTION>13.15548429</MEAN_MOTION><ECCENTRICITY>.00017798</ECCENTRICITY><INCLINATION>87.9059</INCLINATION><RA_OF_ASC_NODE>316.7443</RA_OF_ASC_NODE><ARG_OF_PERICENTER>91.3612</ARG_OF_PERICENTER><MEAN_ANOMALY>268.7722</MEAN_ANOMALY></meanElements><tleParameters><EPHEMERIS_TYPE>0</EPHEMERIS_TYPE><CLASSIFICATION_TYPE>U</CLASSIFICATION_TYPE><NORAD_CAT_ID>56071</NORAD_CAT_ID><ELEMENT_SET_NO>999</ELEMENT_SET_NO><REV_AT_EPOCH>11853</REV_AT_EPOCH><BSTAR>-.30276776E-3</BSTAR><MEAN_MOTION_DOT>-.101E-5</MEAN_MOTION_DOT><MEAN_MOTION_DDOT>0</MEAN_MOTION_DDOT></tleParameters></data></segment></body></omm>
<omm id="CCSDS_OMM_VERS" version="2.0">
<header><CREATION_DATE/><ORIGINATOR/></header><body><segment><metadata><OBJECT_NAME>ONEWEB-0630</OBJECT_NAME><OBJECT_ID>2023-043AC</OBJECT_ID><CENTER_NAME>EARTH</CENTER_NAME><REF_FRAME>TEME</REF_FRAME><TIME_SYSTEM>UTC</TIME_SYSTEM><MEAN_ELEMENT_THEORY>SGP4</MEAN_ELEMENT_THEORY></metadata><data><meanElements><EPOCH>2025-09-01T22:00:26.773920</EPOCH><MEAN_MOTION>13.15548455</MEAN_MOTION><ECCENTRICITY>.00016366</ECCENTRICITY><INCLINATION>87.9051</INCLINATION><RA_OF_ASC_NODE>316.7189</RA_OF_ASC_NODE><ARG_OF_PERICENTER>92.7332</ARG_OF_PERICENTER><MEAN_ANOMALY>267.3986</MEAN_ANOMALY></meanElements><tleParameters><EPHEMERIS_TYPE>0</EPHEMERIS_TYPE><CLASSIFICATION_TYPE>U</CLASSIFICATION_TYPE><NORAD_CAT_ID>56072</NORAD_CAT_ID><ELEMENT_SET_NO>999</ELEMENT_SET_NO><REV_AT_EPOCH>11852</REV_AT_EPOCH><BSTAR>-.21045111E-3</BSTAR><MEAN_MOTION_DOT>-.66E-6</MEAN_MOTION_DOT><MEAN_MOTION_DDOT>0</MEAN_MOTION_DDOT></tleParameters></data></segment></body></omm>
<omm id="CCSDS_OMM_VERS" version="2.0">
<header><CREATION_DATE/><ORIGINATOR/></header><body><segment><metadata><OBJECT_NAME>ONEWEB-0632</OBJECT_NAME><OBJECT_ID>2023-043AD</OBJECT_ID><CENTER_NAME>EARTH</CENTER_NAME><REF_FRAME>TEME</REF_FRAME><TIME_SYSTEM>UTC</TIME_SYSTEM><MEAN_ELEMENT_THEORY>SGP4</MEAN_ELEMENT_THEORY></metadata><data><meanElements><EPOCH>2025-09-01T18:14:33.179136</EPOCH><MEAN_MOTION>13.15548307</MEAN_MOTION><ECCENTRICITY>.00020077</ECCENTRICITY><INCLINATION>87.9050</INCLINATION><RA_OF_ASC_NODE>316.7704</RA_OF_ASC_NODE><ARG_OF_PERICENTER>92.5409</ARG_OF_PERICENTER><MEAN_ANOMALY>267.5951</MEAN_ANOMALY></meanElements><tleParameters><EPHEMERIS_TYPE>0</EPHEMERIS_TYPE><CLASSIFICATION_TYPE>U</CLASSIFICATION_TYPE><NORAD_CAT_ID>56073</NORAD_CAT_ID><ELEMENT_SET_NO>999</ELEMENT_SET_NO><REV_AT_EPOCH>11850</REV_AT_EPOCH><BSTAR>-.65006171E-4</BSTAR><MEAN_MOTION_DOT>-.12E-6</MEAN_MOTION_DOT><MEAN_MOTION_DDOT>0</MEAN_MOTION_DDOT></tleParameters></data></segment></body></omm>
<omm id="CCSDS_OMM_VERS" version="2.0">
<header><CREATION_DATE/><ORIGINATOR/></header><body><segment><metadata><OBJECT_NAME>ONEWEB-0633</OBJECT_NAME><OBJECT_ID>2023-043AE</OBJECT_ID><CENTER_NAME>EARTH</CENTER_NAME><REF_FRAME>TEME</REF_FRAME><TIME_SYSTEM>UTC</TIME_SYSTEM><MEAN_ELEMENT_THEORY>SGP4</MEAN_ELEMENT_THEORY></metadata><data><meanElements><EPOCH>2025-09-01T18:05:26.072736</EPOCH><MEAN_MOTION>13.15549077</MEAN_MOTION><ECCENTRICITY>.0001466</ECCENTRICITY><INCLINATION>87.9050</INCLINATION><RA_OF_ASC_NODE>316.7356</RA_OF_ASC_NODE><ARG_OF_PERICENTER>96.9010</ARG_OF_PERICENTER><MEAN_ANOMALY>263.2287</MEAN_ANOMALY></meanElements><tleParameters><EPHEMERIS_TYPE>0</EPHEMERIS_TYPE><CLASSIFICATION_TYPE>U</CLASSIFICATION_TYPE><NORAD_CAT_ID>56074</NORAD_CAT_ID><ELEMENT_SET_NO>999</ELEMENT_SET_NO><REV_AT_EPOCH>11848</REV_AT_EPOCH><BSTAR>-.36308461E-3</BSTAR><MEAN_MOTION_DOT>-.124E-5</MEAN_MOTION_DOT><MEAN_MOTION_DDOT>0</MEAN_MOTION_DDOT></tleParameters></data></segment></body></omm>
<omm id="CCSDS_OMM_VERS" version="2.0">
<header><CREATION_DATE/><ORIGINATOR/></header><body><segment><metadata><OBJECT_NAME>ONEWEB-0634</OBJECT_NAME><OBJECT_ID>2023-043AF</OBJECT_ID><CENTER_NAME>EARTH</CENTER_NAME><REF_FRAME>TEME</REF_FRAME><TIME_SYSTEM>UTC</TIME_SYSTEM><MEAN_ELEMENT_THEORY>SGP4</MEAN_ELEMENT_THEORY></metadata><data><meanElements><EPOCH>2025-09-01T15:55:22.277856</EPOCH><MEAN_MOTION>13.15548363</MEAN_MOTION><ECCENTRICITY>.00017392</ECCENTRICITY><INCLINATION>87.9064</INCLINATION><RA_OF_ASC_NODE>316.7955</RA_OF_ASC_NODE><ARG_OF_PERICENTER>107.3307</ARG_OF_PERICENTER><MEAN_ANOMALY>252.8014</MEAN_ANOMALY></meanElements><tleParameters><EPHEMERIS_TYPE>0</EPHEMERIS_TYPE><CLASSIFICATION_TYPE>U</CLASSIFICATION_TYPE><NORAD_CAT_ID>56075</NORAD_CAT_ID><ELEMENT_SET_NO>999</ELEMENT_SET_NO><REV_AT_EPOCH>11846</REV_AT_EPOCH><BSTAR>.18348744E-3</BSTAR><MEAN_MOTION_DOT>.82E-6</MEAN_MOTION_DOT><MEAN_MOTION_DDOT>0</MEAN_MOTION_DDOT></tleParameters></data></segment></body></omm>
<omm id="CCSDS_OMM_VERS" version="2.0">
<header><CREATION_DATE/><ORIGINATOR/></header><body><segment><metadata><OBJECT_NAME>ONEWEB-0635</OBJECT_NAME><OBJECT_ID>2023-043AG</OBJECT_ID><CENTER_NAME>EARTH</CENTER_NAME><REF_FRAME>TEME</REF_FRAME><TIME_SYSTEM>UTC</TIME_SYSTEM><MEAN_ELEMENT_THEORY>SGP4</MEAN_ELEMENT_THEORY></metadata><data><meanElements><EPOCH>2025-09-01T15:48:31.939200</EPOCH><MEAN_MOTION>13.15547451</MEAN_MOTION><ECCENTRICITY>.00021214</ECCENTRICITY><INCLINATION>87.9040</INCLINATION><RA_OF_ASC_NODE>316.7618</RA_OF_ASC_NODE><ARG_OF_PERICENTER>91.8894</ARG_OF_PERICENTER><MEAN_ANOMALY>268.2479</MEAN_ANOMALY></meanElements><tleParameters><EPHEMERIS_TYPE>0</EPHEMERIS_TYPE><CLASSIFICATION_TYPE>U</CLASSIFICATION_TYPE><NORAD_CAT_ID>56076</NORAD_CAT_ID><ELEMENT_SET_NO>999</ELEMENT_SET_NO><REV_AT_EPOCH>11849</REV_AT_EPOCH><BSTAR>.32622423E-3</BSTAR><MEAN_MOTION_DOT>.136E-5</MEAN_MOTION_DOT><MEAN_MOTION_DDOT>0</MEAN_MOTION_DDOT></tleParameters></data></segment></body></omm>
<omm id="CCSDS_OMM_VERS" version="2.0">
<header><CREATION_DATE/><ORIGINATOR/></header><body><segment><metadata><OBJECT_NAME>ONEWEB-0636</OBJECT_NAME><OBJECT_ID>2023-043AH</OBJECT_ID><CENTER_NAME>EARTH</CENTER_NAME><REF_FRAME>TEME</REF_FRAME><TIME_SYSTEM>UTC</TIME_SYSTEM><MEAN_ELEMENT_THEORY>SGP4</MEAN_ELEMENT_THEORY></metadata><data><meanElements><EPOCH>2025-09-01T15:37:07.407552</EPOCH><MEAN_MOTION>13.15548419</MEAN_MOTION><ECCENTRICITY>.00020479</ECCENTRICITY><INCLINATION>87.9047</INCLINATION><RA_OF_ASC_NODE>316.7790</RA_OF_ASC_NODE><ARG_OF_PERICENTER>93.2157</ARG_OF_PERICENTER><MEAN_ANOMALY>266.9207</MEAN_ANOMALY></meanElements><tleParameters><EPHEMERIS_TYPE>0</EPHEMERIS_TYPE><CLASSIFICATION_TYPE>U</CLASSIFICATION_TYPE><NORAD_CAT_ID>56077</NORAD_CAT_ID><ELEMENT_SET_NO>999</ELEMENT_SET_NO><REV_AT_EPOCH>11847</REV_AT_EPOCH><BSTAR>.38013791E-3</BSTAR><MEAN_MOTION_DOT>.156E-5</MEAN_MOTION_DOT><MEAN_MOTION_DDOT>0</MEAN_MOTION_DDOT></tleParameters></data></segment></body></omm>
<omm id="CCSDS_OMM_VERS" version="2.0">
<header><CREATION_DATE/><ORIGINATOR/></header><body><segment><metadata><OBJECT_NAME>ONEWEB-0637</OBJECT_NAME><OBJECT_ID>2023-043AJ</OBJECT_ID><CENTER_NAME>EARTH</CENTER_NAME><REF_FRAME>TEME</REF_FRAME><TIME_SYSTEM>UTC</TIME_SYSTEM><MEAN_ELEMENT_THEORY>SGP4</MEAN_ELEMENT_THEORY></metadata><data><meanElements><EPOCH>2025-09-01T15:28:00.515424</EPOCH><MEAN_MOTION>13.15547653</MEAN_MOTION><ECCENTRICITY>.00021967</ECCENTRICITY><INCLINATION>87.9049</INCLINATION><RA_OF_ASC_NODE>316.7928</RA_OF_ASC_NODE><ARG_OF_PERICENTER>101.3363</ARG_OF_PERICENTER><MEAN_ANOMALY>258.8014</MEAN_ANOMALY></meanElements><tleParameters><EPHEMERIS_TYPE>0</EPHEMERIS_TYPE><CLASSIFICATION_TYPE>U</CLASSIFICATION_TYPE><NORAD_CAT_ID>56078</NORAD_CAT_ID><ELEMENT_SET_NO>999</ELEMENT_SET_NO><REV_AT_EPOCH>11849</REV_AT_EPOCH><BSTAR>.21712966E-3</BSTAR><MEAN_MOTION_DOT>.95E-6</MEAN_MOTION_DOT><MEAN_MOTION_DDOT>0</MEAN_MOTION_DDOT></tleParameters></data></segment></body></omm>

</ndm>
